start=new Date('2022-03-03T00:00:00.000Z').valueOf();
sats=[{"CLASSIFICATION_TYPE":"U","GP_ID":"197657414","MEAN_ELEMENT_THEORY":"SGP4","ELEMENT_SET_NO":"999","RA_OF_ASC_NODE":"305.6808","SITE":"AFETR","TIME_SYSTEM":"UTC","ARG_OF_PERICENTER":"53.4187","PERIOD":"95.593","NORAD_CAT_ID":"45786","MEAN_MOTION_DDOT":"0.0000000000000","FILE":"3341695","EPHEMERIS_TYPE":"0","OBJECT_TYPE":"PAYLOAD","TLE_LINE1":"1 45786U 20038BJ  22061.92245371  .00000911  00000-0  80045-4 0  9999","PERIAPSIS":"546.118","ECCENTRICITY":"0.00016110","TLE_LINE2":"2 45786  53.0555 305.6808 0001611  53.4187 306.6950 15.06393327 95532","REF_FRAME":"TEME","LAUNCH_DATE":"2020-06-13","OBJECT_NAME":"STARLINK-1513","APOAPSIS":"548.350","OBJECT_ID":"2020-038BJ","MEAN_MOTION_DOT":"0.00000911","REV_AT_EPOCH":"9553","MEAN_MOTION":"15.06393327","SEMIMAJOR_AXIS":"6925.369","BSTAR":"0.00008004500000","MEAN_ANOMALY":"306.6950","RCS_SIZE":"LARGE","DECAY_DATE":null,"COUNTRY_CODE":"US","CENTER_NAME":"EARTH","EPOCH":"2022-03-02T22:08:20.000544","INCLINATION":"53.0555"},{"REV_AT_EPOCH":"9552","MEAN_MOTION_DOT":"0.00003174","RCS_SIZE":"LARGE","MEAN_ANOMALY":"293.8688","BSTAR":"0.00023182000000","SEMIMAJOR_AXIS":"6925.325","MEAN_MOTION":"15.06407662","COUNTRY_CODE":"US","DECAY_DATE":null,"INCLINATION":"53.0540","EPOCH":"2022-03-02T20:43:23.311200","CENTER_NAME":"EARTH","TLE_LINE2":"2 45787  53.0540 305.9529 0001680  66.2477 293.8688 15.06407662 95522","APOAPSIS":"548.354","OBJECT_NAME":"STARLINK-1517","REF_FRAME":"TEME","LAUNCH_DATE":"2020-06-13","OBJECT_ID":"2020-038BK","MEAN_MOTION_DDOT":"0.0000000000000","PERIOD":"95.592","NORAD_CAT_ID":"45787","EPHEMERIS_TYPE":"0","FILE":"3341695","OBJECT_TYPE":"PAYLOAD","ECCENTRICITY":"0.00016800","TLE_LINE1":"1 45787U 20038BK  22061.86346425  .00003174  00000-0  23182-3 0  9997","PERIAPSIS":"546.027","GP_ID":"197657665","CLASSIFICATION_TYPE":"U","ELEMENT_SET_NO":"999","RA_OF_ASC_NODE":"305.9529","MEAN_ELEMENT_THEORY":"SGP4","SITE":"AFETR","ARG_OF_PERICENTER":"66.2477","TIME_SYSTEM":"UTC"},{"OBJECT_ID":"2020-055A","TLE_LINE2":"2 46027  53.0533 236.3595 0001447  76.2402 283.8748 15.06401808 87637","LAUNCH_DATE":"2020-08-07","REF_FRAME":"TEME","OBJECT_NAME":"STARLINK-1522","APOAPSIS":"548.210","COUNTRY_CODE":"US","DECAY_DATE":null,"CENTER_NAME":"EARTH","EPOCH":"2022-03-02T18:29:23.028288","INCLINATION":"53.0533","MEAN_MOTION_DOT":"0.00000480","REV_AT_EPOCH":"8763","SEMIMAJOR_AXIS":"6925.343","MEAN_MOTION":"15.06401808","BSTAR":"0.00005109000000","MEAN_ANOMALY":"283.8748","RCS_SIZE":"LARGE","SITE":"AFETR","TIME_SYSTEM":"UTC","ARG_OF_PERICENTER":"76.2402","CLASSIFICATION_TYPE":"U","GP_ID":"197657439","MEAN_ELEMENT_THEORY":"SGP4","ELEMENT_SET_NO":"999","RA_OF_ASC_NODE":"236.3595","OBJECT_TYPE":"PAYLOAD","PERIAPSIS":"546.206","TLE_LINE1":"1 46027U 20055A   22061.77040542  .00000480  00000-0  51090-4 0  9992","ECCENTRICITY":"0.00014470","PERIOD":"95.592","NORAD_CAT_ID":"46027","MEAN_MOTION_DDOT":"0.0000000000000","FILE":"3341695","EPHEMERIS_TYPE":"0"},{"ELEMENT_SET_NO":"999","RA_OF_ASC_NODE":"236.2896","MEAN_ELEMENT_THEORY":"SGP4","GP_ID":"197657690","CLASSIFICATION_TYPE":"U","ARG_OF_PERICENTER":"81.7337","TIME_SYSTEM":"UTC","SITE":"AFETR","EPHEMERIS_TYPE":"0","FILE":"3341695","PERIOD":"95.593","NORAD_CAT_ID":"46028","MEAN_MOTION_DDOT":"0.0000000000000","TLE_LINE1":"1 46028U 20055B   22061.78515483  .00000099  00000-0  25527-4 0  9997","ECCENTRICITY":"0.00013670","PERIAPSIS":"546.298","OBJECT_TYPE":"PAYLOAD","APOAPSIS":"548.191","REF_FRAME":"TEME","LAUNCH_DATE":"2020-08-07","OBJECT_NAME":"STARLINK-1523","TLE_LINE2":"2 46028  53.0531 236.2896 0001367  81.7337 278.3807 15.06389882 87652","OBJECT_ID":"2020-055B","MEAN_ANOMALY":"278.3807","RCS_SIZE":"LARGE","MEAN_MOTION":"15.06389882","SEMIMAJOR_AXIS":"6925.380","BSTAR":"0.00002552700000","MEAN_MOTION_DOT":"0.00000099","REV_AT_EPOCH":"8765","EPOCH":"2022-03-02T18:50:37.377312","INCLINATION":"53.0531","CENTER_NAME":"EARTH","COUNTRY_CODE":"US","DECAY_DATE":null},{"RCS_SIZE":"LARGE","MEAN_ANOMALY":"278.8866","BSTAR":"-0.00012198000000","SEMIMAJOR_AXIS":"6925.368","MEAN_MOTION":"15.06393802","REV_AT_EPOCH":"8765","MEAN_MOTION_DOT":"-0.00002098","INCLINATION":"53.0515","EPOCH":"2022-03-02T20:15:32.391360","CENTER_NAME":"EARTH","COUNTRY_CODE":"US","DECAY_DATE":null,"APOAPSIS":"548.267","OBJECT_NAME":"STARLINK-1526","REF_FRAME":"TEME","LAUNCH_DATE":"2020-08-07","TLE_LINE2":"2 46029  53.0515 236.0425 0001493  81.2292 278.8866 15.06393802 87653","OBJECT_ID":"2020-055C","EPHEMERIS_TYPE":"0","FILE":"3341695","MEAN_MOTION_DDOT":"0.0000000000000","NORAD_CAT_ID":"46029","PERIOD":"95.593","ECCENTRICITY":"0.00014930","TLE_LINE1":"1 46029U 20055C   22061.84412490 -.00002098  00000-0 -12198-3 0  9991","PERIAPSIS":"546.199","OBJECT_TYPE":"PAYLOAD","ELEMENT_SET_NO":"999","RA_OF_ASC_NODE":"236.0425","MEAN_ELEMENT_THEORY":"SGP4","GP_ID":"197656437","CLASSIFICATION_TYPE":"U","ARG_OF_PERICENTER":"81.2292","TIME_SYSTEM":"UTC","SITE":"AFETR"},{"EPHEMERIS_TYPE":"0","FILE":"3341695","NORAD_CAT_ID":"46030","PERIOD":"95.592","MEAN_MOTION_DDOT":"0.0000000000000","TLE_LINE1":"1 46030U 20055D   22061.72985581  .00001291  00000-0  10550-3 0  9998","PERIAPSIS":"546.504","ECCENTRICITY":"0.00010110","OBJECT_TYPE":"PAYLOAD","ELEMENT_SET_NO":"999","RA_OF_ASC_NODE":"236.5333","MEAN_ELEMENT_THEORY":"SGP4","GP_ID":"197657187","CLASSIFICATION_TYPE":"U","ARG_OF_PERICENTER":"91.1635","TIME_SYSTEM":"UTC","SITE":"AFETR","MEAN_ANOMALY":"268.9470","RCS_SIZE":"LARGE","SEMIMAJOR_AXIS":"6925.339","MEAN_MOTION":"15.06403039","BSTAR":"0.00010550000000","MEAN_MOTION_DOT":"0.00001291","REV_AT_EPOCH":"8759","EPOCH":"2022-03-02T17:30:59.541984","INCLINATION":"53.0548","CENTER_NAME":"EARTH","COUNTRY_CODE":"US","DECAY_DATE":null,"APOAPSIS":"547.904","LAUNCH_DATE":"2020-08-07","REF_FRAME":"TEME","OBJECT_NAME":"STARLINK-1534","TLE_LINE2":"2 46030  53.0548 236.5333 0001011  91.1635 268.9470 15.06403039 87599","OBJECT_ID":"2020-055D"},{"BSTAR":"0.00002623100000","SEMIMAJOR_AXIS":"6925.337","MEAN_MOTION":"15.06403900","RCS_SIZE":"LARGE","MEAN_ANOMALY":"277.9480","REV_AT_EPOCH":"8762","MEAN_MOTION_DOT":"0.00000109","CENTER_NAME":"EARTH","INCLINATION":"53.0540","EPOCH":"2022-03-02T17:36:18.106560","COUNTRY_CODE":"US","DECAY_DATE":null,"OBJECT_NAME":"STARLINK-1544","LAUNCH_DATE":"2020-08-07","REF_FRAME":"TEME","APOAPSIS":"548.351","TLE_LINE2":"2 46031  53.0540 236.5268 0001660  82.1697 277.9480 15.06403900 87629","OBJECT_ID":"2020-055E","FILE":"3341695","EPHEMERIS_TYPE":"0","MEAN_MOTION_DDOT":"0.0000000000000","NORAD_CAT_ID":"46031","PERIOD":"95.592","ECCENTRICITY":"0.00016600","TLE_LINE1":"1 46031U 20055E   22061.73354290  .00000109  00000-0  26231-4 0  9998","PERIAPSIS":"546.052","OBJECT_TYPE":"PAYLOAD","MEAN_ELEMENT_THEORY":"SGP4","ELEMENT_SET_NO":"999","RA_OF_ASC_NODE":"236.5268","CLASSIFICATION_TYPE":"U","GP_ID":"197657939","TIME_SYSTEM":"UTC","ARG_OF_PERICENTER":"82.1697","SITE":"AFETR"},{"OBJECT_ID":"2020-055F","TLE_LINE2":"2 46032  53.0553 236.0872 0001476  77.3292 282.7862 15.06405662 87650","APOAPSIS":"548.218","OBJECT_NAME":"STARLINK-1555","REF_FRAME":"TEME","LAUNCH_DATE":"2020-08-07","COUNTRY_CODE":"US","DECAY_DATE":null,"INCLINATION":"53.0553","EPOCH":"2022-03-02T19:54:17.614656","CENTER_NAME":"EARTH","REV_AT_EPOCH":"8765","MEAN_MOTION_DOT":"0.00000622","RCS_SIZE":"LARGE","MEAN_ANOMALY":"282.7862","BSTAR":"0.00006066400000","MEAN_MOTION":"15.06405662","SEMIMAJOR_AXIS":"6925.331","SITE":"AFETR","ARG_OF_PERICENTER":"77.3292","TIME_SYSTEM":"UTC","GP_ID":"197658190","CLASSIFICATION_TYPE":"U","ELEMENT_SET_NO":"999","RA_OF_ASC_NODE":"236.0872","MEAN_ELEMENT_THEORY":"SGP4","OBJECT_TYPE":"PAYLOAD","ECCENTRICITY":"0.00014760","TLE_LINE1":"1 46032U 20055F   22061.82937054  .00000622  00000-0  60664-4 0  9992","PERIAPSIS":"546.174","MEAN_MOTION_DDOT":"0.0000000000000","NORAD_CAT_ID":"46032","PERIOD":"95.592","EPHEMERIS_TYPE":"0","FILE":"3341695"},{"SEMIMAJOR_AXIS":"6925.323","MEAN_MOTION":"15.06408326","BSTAR":"0.00029505000000","MEAN_ANOMALY":"285.0723","RCS_SIZE":"LARGE","MEAN_MOTION_DOT":"0.00004117","REV_AT_EPOCH":"8761","CENTER_NAME":"EARTH","EPOCH":"2022-03-02T17:52:13.752768","INCLINATION":"53.0529","DECAY_DATE":null,"COUNTRY_CODE":"US","REF_FRAME":"TEME","LAUNCH_DATE":"2020-08-07","OBJECT_NAME":"STARLINK-1556","APOAPSIS":"548.354","TLE_LINE2":"2 46033  53.0529 236.4824 0001683  75.0452 285.0723 15.06408326 87616","OBJECT_ID":"2020-055G","FILE":"3341695","EPHEMERIS_TYPE":"0","NORAD_CAT_ID":"46033","PERIOD":"95.592","MEAN_MOTION_DDOT":"0.0000000000000","TLE_LINE1":"1 46033U 20055G   22061.74460362  .00004117  00000-0  29505-3 0  9998","ECCENTRICITY":"0.00016830","PERIAPSIS":"546.023","OBJECT_TYPE":"PAYLOAD","MEAN_ELEMENT_THEORY":"SGP4","ELEMENT_SET_NO":"999","RA_OF_ASC_NODE":"236.4824","CLASSIFICATION_TYPE":"U","GP_ID":"197656937","TIME_SYSTEM":"UTC","ARG_OF_PERICENTER":"75.0452","SITE":"AFETR"},{"EPOCH":"2022-03-02T17:57:31.691808","INCLINATION":"53.0543","CENTER_NAME":"EARTH","DECAY_DATE":null,"COUNTRY_CODE":"US","MEAN_ANOMALY":"288.3803","RCS_SIZE":"LARGE","SEMIMAJOR_AXIS":"6925.329","MEAN_MOTION":"15.06406440","BSTAR":"0.00012271000000","MEAN_MOTION_DOT":"0.00001547","REV_AT_EPOCH":"8761","OBJECT_ID":"2020-055H","APOAPSIS":"548.219","LAUNCH_DATE":"2020-08-07","REF_FRAME":"TEME","OBJECT_NAME":"STARLINK-1557","TLE_LINE2":"2 46034  53.0543 236.4753 0001481  71.7347 288.3803 15.06406440 87616","TLE_LINE1":"1 46034U 20055H   22061.74828347  .00001547  00000-0  12271-3 0  9996","ECCENTRICITY":"0.00014810","PERIAPSIS":"546.168","OBJECT_TYPE":"PAYLOAD","EPHEMERIS_TYPE":"0","FILE":"3341695","NORAD_CAT_ID":"46034","PERIOD":"95.592","MEAN_MOTION_DDOT":"0.0000000000000","ARG_OF_PERICENTER":"71.7347","TIME_SYSTEM":"UTC","SITE":"AFETR","ELEMENT_SET_NO":"999","RA_OF_ASC_NODE":"236.4753","MEAN_ELEMENT_THEORY":"SGP4","GP_ID":"197656688","CLASSIFICATION_TYPE":"U"}];
